STARLINK-36466          
1 67358U 26003AA  26165.37369052  .00017236  00000+0  63439-3 0  9991
2 67358  43.0024  40.7694 0001154 277.8753  82.1968 15.27580442 23618
STARLINK-36499          
1 67359U 26003AB  26165.36098992  .00026623  00000+0  97381-3 0  9996
2 67359  43.0005  41.5451 0003312 264.4972  95.5502 15.27565579 23606
STARLINK-36469          
1 67360U 26003AC  26165.35712661  .00024025  00000+0  87937-3 0  9993
2 67360  43.0005  41.5155 0002163 262.7008  97.3598 15.27593318 23600
STARLINK-35306          
1 67361U 26003AD  26164.93140030  .00026246  00000+0  95779-3 0  9992
2 67361  43.0040  43.4717 0000695 172.8374 187.2488 15.27652158 23548
STARLINK-36428          
1 67362U 26003AE  26164.92883448  .00021819  00000+0  79970-3 0  9995
2 67362  43.0064  43.4531 0005351 279.5066  80.5181 15.27584721 23541
STARLINK-36484          
1 67404U 26005A   26164.96334221  .00019669  00000+0  72225-3 0  9994
2 67404  43.0043  53.9965 0000569 268.3224  91.7563 15.27585822 23428
STARLINK-36452          
1 67405U 26005B   26164.95821081  .00022697  00000+0  83200-3 0  9999
2 67405  42.9984  53.9508 0001446 252.4480 107.6214 15.27570848 23429
STARLINK-36409          
1 67406U 26005C   26164.99546475  .00018425  00000+0  67732-3 0  9991
2 67406  43.0123  54.2448 0000876 286.8439  73.2317 15.27585266 23427
STARLINK-36510          
1 67407U 26005D   26165.38138243  .00017365  00000+0  63930-3 0  9994
2 67407  43.0071  51.9742 0000251 246.1443 113.9382 15.27568307 23489
STARLINK-36509          
1 67408U 26005E   26164.97361834  .00006295  00000+0  23821-3 0  9998
2 67408  42.9997  54.0710 0002163 265.5264  94.5341 15.27564069 23417
STARLINK-36507          
1 67409U 26005F   26165.00317438  .00018421  00000+0  67712-3 0  9996
2 67409  43.0128  54.2957 0000470 345.2530  14.8308 15.27587445 23424
STARLINK-36508          
1 67410U 26005G   26165.83339119 -.00015272  00000+0 -54637-3 0  9994
2 67410  43.0037  49.7479 0001375 279.5592 274.8368 15.27592919  5757
STARLINK-36503          
1 67411U 26005H   26165.36980435  .00022289  00000+0  81688-3 0  9996
2 67411  43.0074  51.8839 0001483 111.7814 248.3195 15.27587109 23486
STARLINK-36446          
1 67412U 26005J   26165.37621768  .00016243  00000+0  59840-3 0  9997
2 67412  43.0002  51.9388 0001826 260.8134  99.2511 15.27583505 23481
STARLINK-36442          
1 67413U 26005K   26164.96590821  .00023873  00000+0  87390-3 0  9995
2 67413  43.0050  54.0130 0000572 147.6248 212.4639 15.27592526 23426
STARLINK-36506          
1 67414U 26005L   26163.99024844  .00016785  00000+0  61772-3 0  9995
2 67414  43.0089  59.5904 0001936 280.9502  79.1131 15.27599054 23278
STARLINK-36468          
1 67415U 26005M   26165.40320404  .00023262  00000+0  85206-3 0  9991
2 67415  43.0077  52.1365 0001840 279.0785  80.9859 15.27584428 23481
STARLINK-36487          
1 67416U 26005N   26165.39806472  .00020685  00000+0  75902-3 0  9992
2 67416  43.0061  52.1004 0001186 285.5286  74.5435 15.27583971 23487
STARLINK-36374          
1 67417U 26005P   26165.38521005  .00024469  00000+0  89543-3 0  9998
2 67417  42.9993  52.0023 0002091 261.9001  98.1613 15.27591373 23484
STARLINK-36455          
1 67418U 26005Q   26165.37748933  .00023120  00000+0  84646-3 0  9991
2 67418  42.9907  51.9361 0002559 266.9931  93.0627 15.27601280 23487
STARLINK-36424          
1 67419U 26005R   26164.96976661  .00023098  00000+0  84595-3 0  9994
2 67419  43.0035  54.0417 0003789 281.7960  78.2466 15.27587609 23429
STARLINK-35564          
1 67420U 26005S   26165.38264068  .00023874  00000+0  87406-3 0  9990
2 67420  42.9958  51.9764 0001999 280.0697  79.9929 15.27586874 23485
STARLINK-36431          
1 67421U 26005T   26165.40190682  .00021558  00000+0  79033-3 0  9998
2 67421  43.0061  52.1297 0004363 263.4913  96.5442 15.27586197 23484
STARLINK-36418          
1 67422U 26005U   26164.96205660  .00025521  00000+0  93330-3 0  9992
2 67422  43.0072  53.9814 0004312 279.1369  80.8995 15.27589801 23422
STARLINK-36465          
1 67423U 26005V   26165.39420369  .00010173  00000+0  37850-3 0  9998
2 67423  43.0041  52.0717 0001747 269.8282  90.2370 15.27598166 23482
STARLINK-36362          
1 67424U 26005W   26165.83777957  .00016145  00000+0  59480-3 0  9994
2 67424  43.0007  49.3750 0001280 271.6062  88.4643 15.27587172 23555
STARLINK-36447          
1 67425U 26005X   26165.56852560  .00014379  00000+0  53098-3 0  9995
2 67425  42.9968  50.7937 0000474 269.3400  90.7397 15.27583052 23518
STARLINK-36146          
1 67426U 26005Y   26165.40705728  .00022954  00000+0  84084-3 0  9999
2 67426  43.0050  52.1640 0002097 272.7583  87.3029 15.27587483 23474
STARLINK-36459          
1 67427U 26005Z   26165.83339119 -.00002890  00000+0 -95612-4 0  9993
2 67427  43.0037  49.6544 0001509 269.4928 320.3354 15.27552308  5803
STARLINK-36464          
1 67428U 26005AA  26165.37366168  .00015319  00000+0  56535-3 0  9995
2 67428  43.0204  51.9150 0002797 116.5196 243.5943 15.27561920 23471
